STARLINK-1504_new
1 15746C 20038S   21326.14965020  .00006658  00000-0  44608-3 0  3264
2 15746  53.0527  78.0723 0001356  78.3811 145.9349 15.06394968    17
STARLINK-1504_old
1 25746C 20038S   21325.16856701  .00004621  00000-0  30967-3 0  3250
2 25746  53.0526  82.4764 0001365  81.2452 219.7032 15.06384616    12
